COSMOS 2251 DEB         
1 34042U 93036JD  17345.90770804  .00005047  00000-0  25599-3 0  9998
2 34042  73.8904  27.9653 0060895 294.5293  64.9560 15.15604808478423
